NORAD_CAT_ID,OBJECT_NAME,OBJECT_TYPE,EPOCH,MEAN_MOTION,ECCENTRICITY,INCLINATION,RA_OF_ASC_NODE,ARG_OF_PERICENTER,MEAN_ANOMALY,BSTAR,MEAN_MOTION_DOT,MEAN_MOTION_DDOT,TLE_LINE0,TLE_LINE1,TLE_LINE2,SEMIMAJOR_AXIS,PERIOD,APOGEE,PERIGEE,DECAYED
49730.0,STARLINK-3249,PAYLOAD,2023-04-15 12:47:49,15.08841808,0.0001241,53.2158,233.8693,96.4916,263.6217,0.00018591,2.672e-05,0.0,0 STARLINK-3249,1 49730U 21115G   23105.53321700  .00002672  00000-0  18591-3 0  9999,2 49730  53.2158 233.8693 0001241  96.4916 263.6217 15.08841808 75491,6917.875,95.437,540.598,538.881,0.0
49730.0,STARLINK-3249,PAYLOAD,2023-04-15 20:44:44,15.08860961,0.0001145,53.2131,232.3808,106.5885,253.5233,0.00084744,0.00013232,0.0,0 STARLINK-3249,1 49730U 21115G   23105.86440964  .00013232  00000-0  84744-3 0  9996,2 49730  53.2131 232.3808 0001145 106.5885 253.5233 15.08860961 76651,6917.816,95.436,540.473,538.889,0.0
49730.0,STARLINK-3249,PAYLOAD,2023-04-16 12:38:36,15.0884748,0.0001546,53.2121,229.4072,103.9022,256.2142,0.00041927,6.392e-05,0.0,0 STARLINK-3249,1 49730U 21115G   23106.52681509  .00006392  00000-0  41927-3 0  9997,2 49730  53.2121 229.4072 0001546 103.9022 256.2142 15.08847480 75647,6917.858,95.437,540.792,538.653,0.0
49730.0,STARLINK-3249,PAYLOAD,2023-04-16 17:24:46,15.08867683,0.0001137,53.214,228.5164,94.2282,265.884,0.0025641,0.00040787,0.0,0 STARLINK-3249,1 49730U 21115G   23106.72553342  .00040787  00000-0  25641-2 0  9992,2 49730  53.2140 228.5164 0001137  94.2282 265.8840 15.08867683 76780,6917.796,95.436,540.447,538.874,0.0
49730.0,STARLINK-3249,PAYLOAD,2023-04-17 01:21:42,15.08851442,0.0001423,53.2149,227.0284,82.9352,277.1802,0.0012704,0.00019995,0.0,0 STARLINK-3249,1 49730U 21115G   23107.05673672  .00019995  00000-0  12704-2 0  9991,2 49730  53.2149 227.0284 0001423  82.9352 277.1802 15.08851442 76832,6917.845,95.437,540.695,538.726,0.0
49730.0,STARLINK-3249,PAYLOAD,2023-04-17 12:29:24,15.08844451,0.0001559,53.2148,224.9473,84.4245,275.6925,0.0018321,0.00028994,0.0,0 STARLINK-3249,1 49730U 21115G   23107.52042096  .00028994  00000-0  18321-2 0  9993,2 49730  53.2148 224.9473 0001559  84.4245 275.6925 15.08844451 76904,6917.867,95.437,540.81,538.653,0.0
49730.0,STARLINK-3249,PAYLOAD,2023-04-17 14:04:47,15.08845917,0.0001475,53.2152,224.6505,79.2199,280.8959,0.0017236,0.00027254,0.0,0 STARLINK-3249,1 49730U 21115G   23107.58666049  .00027254  00000-0  17236-2 0  9991,2 49730  53.2152 224.6505 0001475  79.2199 280.8959 15.08845917 75800,6917.862,95.437,540.748,538.707,0.0
49730.0,STARLINK-3249,PAYLOAD,2023-04-18 07:34:02,15.08843379,0.0001914,53.215,221.3825,78.3591,281.7616,0.00069408,0.00010777,0.0,0 STARLINK-3249,1 49730U 21115G   23108.31530462  .00010777  00000-0  69408-3 0  9993,2 49730  53.2150 221.3825 0001914  78.3591 281.7616 15.08843379 75913,6917.87,95.437,541.059,538.411,0.0
49730.0,STARLINK-3249,PAYLOAD,2023-04-18 18:41:43,15.08853305,0.0001535,53.2153,219.2959,101.2333,258.8832,0.00072365,0.00011252,0.0,0 STARLINK-3249,1 49730U 21115G   23108.77898006  .00011252  00000-0  72365-3 0  9999,2 49730  53.2153 219.2959 0001535 101.2333 258.8832 15.08853305 77095,6917.84,95.437,540.767,538.643,0.0
49730.0,STARLINK-3249,PAYLOAD,2023-04-19 07:24:49,15.08841652,0.0001293,53.2156,216.9212,75.1328,284.9807,0.00024977,3.69e-05,0.0,0 STARLINK-3249,1 49730U 21115G   23109.30890430  .00003690  00000-0  24977-3 0  9995,2 49730  53.2156 216.9212 0001293  75.1328 284.9807 15.08841652 77171,6917.875,95.437,540.635,538.846,0.0
49730.0,STARLINK-3249,PAYLOAD,2023-04-19 18:32:30,15.08869538,0.0001561,53.2152,214.8374,104.4246,255.692,0.0016025,0.00025329,0.0,0 STARLINK-3249,1 49730U 21115G   23109.77257694  .00025329  00000-0  16025-2 0  9992,2 49730  53.2152 214.8374 0001561 104.4246 255.6920 15.08869538 76135,6917.79,95.436,540.735,538.575,0.0
49730.0,STARLINK-3249,PAYLOAD,2023-04-20 08:50:59,15.08843534,0.0001412,53.2155,212.1609,109.4135,250.7009,0.0010473,0.00016421,0.0,0 STARLINK-3249,1 49730U 21115G   23110.36874210  .00016421  00000-0  10473-2 0  9992,2 49730  53.2155 212.1609 0001412 109.4135 250.7009 15.08843534 76229,6917.87,95.437,540.711,538.758,0.0
49730.0,STARLINK-3249,PAYLOAD,2023-04-20 16:47:54,15.08850029,0.0001024,53.2167,210.6753,96.3806,263.7303,0.0016222,0.00025631,0.0,0 STARLINK-3249,1 49730U 21115G   23110.69994207  .00025631  00000-0  16222-2 0  9998,2 49730  53.2167 210.6753 0001024  96.3806 263.7303 15.08850029 76276,6917.85,95.437,540.423,539.006,0.0
49730.0,STARLINK-3249,PAYLOAD,2023-04-21 13:27:56,15.08845872,0.0001611,53.2168,206.8092,79.0696,281.0477,0.00098275,0.0001539,0.0,0 STARLINK-3249,1 49730U 21115G   23111.56106693  .00015390  00000-0  98275-3 0  9999,2 49730  53.2168 206.8092 0001611  79.0696 281.0477 15.08845872 76407,6917.862,95.437,540.842,538.613,0.0
49730.0,STARLINK-3249,PAYLOAD,2023-04-22 05:21:47,15.08848214,5.14e-05,53.2153,203.8358,65.0056,295.0989,0.00078786,0.00012276,0.0,0 STARLINK-3249,1 49730U 21115G   23112.22346534  .00012276  00000-0  78786-3 0  9998,2 49730  53.2153 203.8358 0000514  65.0056 295.0989 15.08848214 77619,6917.855,95.437,540.076,539.365,0.0
49730.0,STARLINK-3249,PAYLOAD,2023-04-22 16:29:28,15.08869982,9.41e-05,53.2138,201.7539,62.9422,297.1666,0.0016982,0.00026864,0.0,0 STARLINK-3249,1 49730U 21115G   23112.68714056  .00026864  00000-0  16982-2 0  9993,2 49730  53.2138 201.7539 0000941  62.9422 297.1666 15.08869982 76571,6917.789,95.436,540.305,539.003,0.0
49730.0,STARLINK-3249,PAYLOAD,2023-04-22 22:51:01,15.08844972,8.5e-05,53.214,200.5653,77.9915,282.1173,0.00038709,5.879e-05,0.0,0 STARLINK-3249,1 49730U 21115G   23112.95210290  .00005879  00000-0  38709-3 0  9999,2 49730  53.2140 200.5653 0000850  77.9915 282.1173 15.08844972 76614,6917.865,95.437,540.318,539.142,0.0
49730.0,STARLINK-3249,PAYLOAD,2023-04-23 17:55:39,15.08868276,0.0001581,53.2131,196.9957,74.1892,285.9274,0.0019376,0.00030708,0.0,0 STARLINK-3249,1 49730U 21115G   23113.74698126  .00030708  00000-0  19376-2 0  9992,2 49730  53.2131 196.9957 0001581  74.1892 285.9274 15.08868276 76733,6917.794,95.436,540.753,538.565,0.0
49730.0,STARLINK-3249,PAYLOAD,2023-04-23 22:41:48,15.08850198,9.68e-05,53.2135,196.1035,85.9923,274.118,0.00093481,0.00014625,0.0,0 STARLINK-3249,1 49730U 21115G   23113.94570182  .00014625  00000-0  93481-3 0  9995,2 49730  53.2135 196.1035 0000968  85.9923 274.1180 15.08850198 77875,6917.849,95.437,540.384,539.045,0.0
49730.0,STARLINK-3249,PAYLOAD,2023-04-25 11:15:41,15.08771632,0.0001451,53.2148,189.2629,113.434,246.6805,0.00067123,0.00010391,0.0,0 STARLINK-3249,1 49730U 21115G   23115.46923312  .00010391  00000-0  67123-3 0  9991,2 49730  53.2148 189.2629 0001451 113.4340 246.6805 15.08771632 78109,6918.089,95.442,540.958,538.951,0.0
49730.0,STARLINK-3249,PAYLOAD,2023-04-26 11:06:30,15.08827358,0.0001057,53.2137,184.8045,107.6711,252.4397,0.0014701,0.00023178,0.0,0 STARLINK-3249,1 49730U 21115G   23116.46285611  .00023178  00000-0  14701-2 0  9995,2 49730  53.2137 184.8045 0001057 107.6711 252.4397 15.08827358 77140,6917.919,95.438,540.515,539.053,0.0
49730.0,STARLINK-3249,PAYLOAD,2023-04-26 15:52:40,15.08836792,0.0001005,53.2134,183.9129,103.0126,257.0978,0.0015203,0.00023988,0.0,0 STARLINK-3249,1 49730U 21115G   23116.66157758  .00023988  00000-0  15203-2 0  9994,2 49730  53.2134 183.9129 0001005 103.0126 257.0978 15.08836792 77174,6917.89,95.438,540.45,539.06,0.0
49730.0,STARLINK-3249,PAYLOAD,2023-04-27 10:57:17,15.08864284,0.000108,53.2143,180.343,107.4877,252.6233,0.0014249,0.00022477,0.0,0 STARLINK-3249,1 49730U 21115G   23117.45645269  .00022477  00000-0  14249-2 0  9992,2 49730  53.2143 180.3430 0001080 107.4877 252.6233 15.08864284 77299,6917.806,95.436,540.418,538.924,0.0
49730.0,STARLINK-3249,PAYLOAD,2023-04-28 10:48:03,15.08874125,0.0001058,53.2144,175.8831,109.8201,250.2905,0.00059798,9.251e-05,0.0,0 STARLINK-3249,1 49730U 21115G   23118.45003571  .00009251  00000-0  59798-3 0  9991,2 49730  53.2144 175.8831 0001058 109.8201 250.2905 15.08874125 78551,6917.776,95.435,540.373,538.909,0.0
49730.0,STARLINK-3249,PAYLOAD,2023-04-29 09:03:26,15.08854499,0.0001359,53.2158,171.7266,127.1154,232.9963,0.000312,4.683e-05,0.0,0 STARLINK-3249,1 49730U 21115G   23119.37739100  .00004683  00000-0  31200-3 0  9999,2 49730  53.2158 171.7266 0001359 127.1154 232.9963 15.08854499 77582,6917.836,95.437,540.641,538.761,0.0
49730.0,STARLINK-3249,PAYLOAD,2023-04-29 15:24:59,15.08852007,9.67e-05,53.2145,170.5301,103.0616,257.0484,8.2534e-05,1.026e-05,0.0,0 STARLINK-3249,1 49730U 21115G   23119.64234988  .00001026  00000-0  82534-4 0  9998,2 49730  53.2145 170.5301 0000967 103.0616 257.0484 15.08852007 78732,6917.844,95.437,540.378,539.04,0.0
49730.0,STARLINK-3249,PAYLOAD,2023-04-30 10:29:36,15.08844123,0.0001307,53.2153,166.9602,103.0516,257.0623,-0.00013858,-2.493e-05,0.0,0 STARLINK-3249,1 49730U 21115G   23120.43723280 -.00002493  00000-0 -13858-3 0  9998,2 49730  53.2153 166.9602 0001307 103.0516 257.0623 15.08844123 78850,6917.868,95.437,540.637,538.829,0.0
49730.0,STARLINK-3249,PAYLOAD,2023-05-01 11:55:47,15.08838891,0.0001489,53.2156,162.2018,117.6244,242.4899,3.7214e-05,3.04e-06,0.0,0 STARLINK-3249,1 49730U 21115G   23121.49707927  .00000304  00000-0  37214-4 0  9995,2 49730  53.2156 162.2018 0001489 117.6244 242.4899 15.08838891 79010,6917.884,95.438,540.779,538.719,0.0
49730.0,STARLINK-3249,PAYLOAD,2023-05-02 07:00:24,15.08850996,0.0001214,53.2157,158.634,102.8593,257.2535,0.00015492,2.179e-05,0.0,0 STARLINK-3249,1 49730U 21115G   23122.29194948  .00002179  00000-0  15492-3 0  9992,2 49730  53.2157 158.6340 0001214 102.8593 257.2535 15.08850996 79131,6917.847,95.437,540.552,538.872,0.0
49730.0,STARLINK-3249,PAYLOAD,2023-05-02 11:46:33,15.08853264,0.0001149,53.2145,157.7428,94.5776,265.5347,0.00027113,4.031e-05,0.0,0 STARLINK-3249,1 49730U 21115G   23122.49066953  .00004031  00000-0  27113-3 0  9990,2 49730  53.2145 157.7428 0001149  94.5776 265.5347 15.08853264 78056,6917.84,95.437,540.5,538.91,0.0
